STARLINK-4473           
1 53660U 22105N   26068.62276521  .00000006  00000+0  49957-5 0  9997
2 53660  97.6047 310.1390 0002777  98.7216 261.4323 15.01265587193226
HAWK-9B                 
1 59450U 24066J   26068.43130858  .00002608  00000+0  23214-3 0  9995
2 59450  45.6215  73.5456 0003751 229.3903 130.6652 14.98778240104864
